{"type": "FeatureCollection", "features": [ {"type": "Feature", "properties": {"norad_id": 66550, "name": "CZ-7A R/B", "group": "last-30-days", "lat": 0.21480867164959622, "lon": -85.43494234729916, "alt_km": 34206.44237678997, "timestamp": "2025-12-04T21:36:14.652836+00:00", "meta": {"OBJECT_NAME": "CZ-7A R/B", "OBJECT_ID": "2025-277B", "EPOCH": "2025-12-01T03:57:29.558880", "MEAN_MOTION": 2.40161271, "ECCENTRICITY": 0.72362879, "INCLINATION": 14.4278, "RA_OF_ASC_NODE": 275.378, "ARG_OF_PERICENTER": 178.5774, "MEAN_ANOMALY": 186.2906, "EPHEMERIS_TYPE": 0, "CLASSIFICATION_TYPE": "U", "NORAD_CAT_ID": 66550, "ELEMENT_SET_NO": 999, "REV_AT_EPOCH": 5, "BSTAR": 4.4603974e-05, "MEAN_MOTION_DOT": 0.00016399, "MEAN_MOTION_DDOT": -7.1945e-08}, "tle": {"line1": "1 66550U 25277B   25335.16492545  .00016399 -71945-7  44604-4 0  9993", "line2": "2 66550  14.4278 275.3780 7236287 178.5774 186.2906  2.40161271    57"}}, "geometry": {"type": "Point", "coordinates": [-85.43494234729916, 0.21480867164959622]}}, {"type": "Feature", "properties": {"norad_id": 66551, "name": "UNKNOWN", "group": "last-30-days", "lat": -17.243953626995683, "lon": 59.011977796948024, "alt_km": 333.8558049252342, "timestamp": "2025-12-04T21:36:14.652848+00:00", "meta": {"OBJECT_NAME": "UNKNOWN", "OBJECT_ID": "2025-271AE", "EPOCH": "2025-12-02T16:00:03.000096", "MEAN_MOTION": 15.87051116, "ECCENTRICITY": 7.17e-05, "INCLINATION": 53.1571, "RA_OF_ASC_NODE": 236.7807, "ARG_OF_PERICENTER": 110.7411, "MEAN_ANOMALY": 313.9012, "EPHEMERIS_TYPE": 0, "CLASSIFICATION_TYPE": "U", "NORAD_CAT_ID": 66551, "ELEMENT_SET_NO": 999, "REV_AT_EPOCH": 262, "BSTAR": -0.0074303, "MEAN_MOTION_DOT": -0.01709685, "MEAN_MOTION_DDOT": 0}, "tle": {"line1": "1 66551U 25271AE  25336.66670139 -.01709685  00000+0 -74303-2 0  9993", "line2": "2 66551  53.1571 236.7807 0000717 110.7411 313.9012 15.87051116  2624"}}, "geometry": {"type": "Point", "coordinates": [59.011977796948024, -17.243953626995683]}}, {"type": "Feature", "properties": {"norad_id": 66554, "name": "GLOBAL-33", "group": "last-30-days", "lat": -10.759757791816632, "lon": 90.0571884565919, "alt_km": 469.12201499779803, "timestamp": "2025-12-04T21:36:14.652859+00:00", "meta": {"OBJECT_NAME": "GLOBAL-33", "OBJECT_ID": "2025-267A", "EPOCH": "2025-12-04T15:24:47.579904", "MEAN_MOTION": 15.31343102, "ECCENTRICITY": 0.00053689, "INCLINATION": 42.0191, "RA_OF_ASC_NODE": 103.7308, "ARG_OF_PERICENTER": 354.3284, "MEAN_ANOMALY": 5.7492, "EPHEMERIS_TYPE": 0, "CLASSIFICATION_TYPE": "U", "NORAD_CAT_ID": 66554, "ELEMENT_SET_NO": 999, "REV_AT_EPOCH": 216, "BSTAR": 0.00083341643, "MEAN_MOTION_DOT": 0.00025621, "MEAN_MOTION_DDOT": 0}, "tle": {"line1": "1 66554U 25267A   25338.64221736  .00025621  00000+0  83342-3 0  9998", "line2": "2 66554  42.0191 103.7308 0005368 354.3284   5.7492 15.31343102  2167"}}, "geometry": {"type": "Point", "coordinates": [90.0571884565919, -10.759757791816632]}}, {"type": "Feature", "properties": {"norad_id": 66555, "name": "ELECTRON KICK STAGE R/B", "group": "last-30-days", "lat": 13.36399463819174, "lon": 117.45488760946003, "alt_km": 462.3202422886443, "timestamp": "2025-12-04T21:36:14.652869+00:00", "meta": {"OBJECT_NAME": "ELECTRON KICK STAGE R/B", "OBJECT_ID": "2025-267B", "EPOCH": "2025-12-04T15:15:31.817952", "MEAN_MOTION": 15.32232828, "ECCENTRICITY": 0.00072797, "INCLINATION": 42.0175, "RA_OF_ASC_NODE": 103.6834, "ARG_OF_PERICENTER": 353.8025, "MEAN_ANOMALY": 6.2722, "EPHEMERIS_TYPE": 0, "CLASSIFICATION_TYPE": "U", "NORAD_CAT_ID": 66555, "ELEMENT_SET_NO": 999, "REV_AT_EPOCH": 216, "BSTAR": 0.0014703471, "MEAN_MOTION_DOT": 0.00046832, "MEAN_MOTION_DDOT": 0}, "tle": {"line1": "1 66555U 25267B   25338.63578493  .00046832  00000+0  14703-2 0  9994", "line2": "2 66555  42.0175 103.6834 0007279 353.8025   6.2722 15.32232828  2168"}}, "geometry": {"type": "Point", "coordinates": [117.45488760946003, 13.36399463819174]}}, {"type": "Feature", "properties": {"norad_id": 66557, "name": "STARLINK-35699", "group": "last-30-days", "lat": 35.60841461656659, "lon": -142.37110057758525, "alt_km": 356.46317843082034, "timestamp": "2025-12-04T21:36:14.652880+00:00", "meta": {"OBJECT_NAME": "STARLINK-35699", "OBJECT_ID": "2025-268A", "EPOCH": "2025-12-04T14:00:01.000224", "MEAN_MOTION": 15.70591101, "ECCENTRICITY": 0.00016509, "INCLINATION": 42.9987, "RA_OF_ASC_NODE": 169.3111, "ARG_OF_PERICENTER": 269.8704, "MEAN_ANOMALY": 156.0383, "EPHEMERIS_TYPE": 0, "CLASSIFICATION_TYPE": "U", "NORAD_CAT_ID": 66557, "ELEMENT_SET_NO": 999, "REV_AT_EPOCH": 335, "BSTAR": -0.017090667, "MEAN_MOTION_DOT": -0.01923849, "MEAN_MOTION_DDOT": 0}, "tle": {"line1": "1 66557U 25268A   25338.58334491 -.01923849  00000+0 -17091-1 0  9996", "line2": "2 66557  42.9987 169.3111 0001650 269.8704 156.0383 15.70591101  3357"}}, "geometry": {"type": "Point", "coordinates": [-142.37110057758525, 35.60841461656659]}}, {"type": "Feature", "properties": {"norad_id": 66558, "name": "STARLINK-35695", "group": "last-30-days", "lat": 36.425928864100015, "lon": -140.23094990855074, "alt_km": 356.3366538613691, "timestamp": "2025-12-04T21:36:14.652889+00:00", "meta": {"OBJECT_NAME": "STARLINK-35695", "OBJECT_ID": "2025-268B", "EPOCH": "2025-12-04T14:00:01.000224", "MEAN_MOTION": 15.70589964, "ECCENTRICITY": 0.00016229, "INCLINATION": 42.9988, "RA_OF_ASC_NODE": 169.3065, "ARG_OF_PERICENTER": 269.7108, "MEAN_ANOMALY": 158.1138, "EPHEMERIS_TYPE": 0, "CLASSIFICATION_TYPE": "U", "NORAD_CAT_ID": 66558, "ELEMENT_SET_NO": 999, "REV_AT_EPOCH": 335, "BSTAR": -0.017056764, "MEAN_MOTION_DOT": -0.01920364, "MEAN_MOTION_DDOT": 0}, "tle": {"line1": "1 66558U 25268B   25338.58334491 -.01920364  00000+0 -17057-1 0  9998", "line2": "2 66558  42.9988 169.3065 0001622 269.7108 158.1138 15.70589964  3358"}}, "geometry": {"type": "Point", "coordinates": [-140.23094990855074, 36.425928864100015]}}, {"type": "Feature", "properties": {"norad_id": 66559, "name": "STARLINK-35419", "group": "last-30-days", "lat": 37.20489861532853, "lon": -138.04427665446312, "alt_km": 356.25177000418444, "timestamp": "2025-12-04T21:36:14.652901+00:00", "meta": {"OBJECT_NAME": "STARLINK-35419", "OBJECT_ID": "2025-268C", "EPOCH": "2025-12-04T14:00:01.000224", "MEAN_MOTION": 15.7058824, "ECCENTRICITY": 0.00016342, "INCLINATION": 42.9989, "RA_OF_ASC_NODE": 169.3021, "ARG_OF_PERICENTER": 269.1717, "MEAN_ANOMALY": 160.5722, "EPHEMERIS_TYPE": 0, "CLASSIFICATION_TYPE": "U", "NORAD_CAT_ID": 66559, "ELEMENT_SET_NO": 999, "REV_AT_EPOCH": 335, "BSTAR": -0.017053216, "MEAN_MOTION_DOT": -0.01919894, "MEAN_MOTION_DDOT": 0}, "tle": {"line1": "1 66559U 25268C   25338.58334491 -.01919894  00000+0 -17053-1 0  9991", "line2": "2 66559  42.9989 169.3021 0001634 269.1717 160.5722 15.70588240  3357"}}, "geometry": {"type": "Point", "coordinates": [-138.04427665446312, 37.20489861532853]}}, {"type": "Feature", "properties": {"norad_id": 66560, "name": "STARLINK-35411", "group": "last-30-days", "lat": 37.94257452519776, "lon": -135.8134009448405, "alt_km": 356.13356259049124, "timestamp": "2025-12-04T21:36:14.652915+00:00", "meta": {"OBJECT_NAME": "STARLINK-35411", "OBJECT_ID": "2025-268D", "EPOCH": "2025-12-04T14:00:01.000224", "MEAN_MOTION": 15.70587369, "ECCENTRICITY": 0.00016075, "INCLINATION": 42.9988, "RA_OF_ASC_NODE": 169.2972, "ARG_OF_PERICENTER": 269.6418, "MEAN_ANOMALY": 162.0202, "EPHEMERIS_TYPE": 0, "CLASSIFICATION_TYPE": "U", "NORAD_CAT_ID": 66560, "ELEMENT_SET_NO": 999, "REV_AT_EPOCH": 335, "BSTAR": -0.017045148, "MEAN_MOTION_DOT": -0.01919006, "MEAN_MOTION_DDOT": 0}, "tle": {"line1": "1 66560U 25268D   25338.58334491 -.01919006  00000+0 -17045-1 0  9999", "line2": "2 66560  42.9988 169.2972 0001607 269.6418 162.0202 15.70587369  3356"}}, "geometry": {"type": "Point", "coordinates": [-135.8134009448405, 37.94257452519776]}}, {"type": "Feature", "properties": {"norad_id": 66561, "name": "STARLINK-35305", "group": "last-30-days", "lat": 39.28660303820775, "lon": -131.2212531136327, "alt_km": 355.8886977803804, "timestamp": "2025-12-04T21:36:14.652925+00:00", "meta": {"OBJECT_NAME": "STARLINK-35305", "OBJECT_ID": "2025-268E", "EPOCH": "2025-12-04T14:00:01.000224", "MEAN_MOTION": 15.70565437, "ECCENTRICITY": 0.00014469, "INCLINATION": 42.9989, "RA_OF_ASC_NODE": 169.2875, "ARG_OF_PERICENTER": 267.1726, "MEAN_ANOMALY": 168.3407, "EPHEMERIS_TYPE": 0, "CLASSIFICATION_TYPE": "U", "NORAD_CAT_ID": 66561, "ELEMENT_SET_NO": 999, "REV_AT_EPOCH": 330, "BSTAR": -0.016838576, "MEAN_MOTION_DOT": -0.01896678, "MEAN_MOTION_DDOT": 0}, "tle": {"line1": "1 66561U 25268E   25338.58334491 -.01896678  00000+0 -16839-1 0  9999", "line2": "2 66561  42.9989 169.2875 0001446 267.1726 168.3407 15.70565437  3309"}}, "geometry": {"type": "Point", "coordinates": [-131.2212531136327, 39.28660303820775]}}, {"type": "Feature", "properties": {"norad_id": 66562, "name": "STARLINK-35579", "group": "last-30-days", "lat": 38.63718158504342, "lon": -133.5388924310784, "alt_km": 355.9953280631271, "timestamp": "2025-12-04T21:36:14.652937+00:00", "meta": {"OBJECT_NAME": "STARLINK-35579", "OBJECT_ID": "2025-268F", "EPOCH": "2025-12-04T14:00:01.000224", "MEAN_MOTION": 15.70587323, "ECCENTRICITY": 0.00014918, "INCLINATION": 42.9988, "RA_OF_ASC_NODE": 169.292, "ARG_OF_PERICENTER": 267.7055, "MEAN_ANOMALY": 165.8766, "EPHEMERIS_TYPE": 0, "CLASSIFICATION_TYPE": "U", "NORAD_CAT_ID": 66562, "ELEMENT_SET_NO": 999, "REV_AT_EPOCH": 335, "BSTAR": -0.017074357, "MEAN_MOTION_DOT": -0.01921827, "MEAN_MOTION_DDOT": 0}, "tle": {"line1": "1 66562U 25268F   25338.58334491 -.01921827  00000+0 -17074-1 0  9997", "line2": "2 66562  42.9988 169.2920 0001491 267.7055 165.8766 15.70587323  3354"}}, "geometry": {"type": "Point", "coordinates": [-133.5388924310784, 38.63718158504342]}}]}